CCSDS_OMM_VERS = 2.0
CREATION_DATE  = 
ORIGINATOR     = 

OBJECT_NAME    = STARLINK-36629
OBJECT_ID      = 2026-018H
CENTER_NAME    = EARTH
REF_FRAME      = TEME
TIME_SYSTEM    = UTC
MEAN_ELEMENT_THEORY = SGP/SGP4

EPOCH          = 2026-02-04T20:00:00.999360
MEAN_MOTION    = 15.99058334
ECCENTRICITY   = .0001324
INCLINATION    = 97.2792
RA_OF_ASC_NODE = 99.8445
ARG_OF_PERICENTER = 68.4120
MEAN_ANOMALY   = 305.6000

EPHEMERIS_TYPE = 0
CLASSIFICATION_TYPE = U
NORAD_CAT_ID   = 67596
ELEMENT_SET_NO = 999
REV_AT_EPOCH   = 206
BSTAR          = -.34379E-2
MEAN_MOTION_DOT = -.1638799E-1
MEAN_MOTION_DDOT = .80998E-3

CCSDS_OMM_VERS = 2.0
CREATION_DATE  = 
ORIGINATOR     = 

OBJECT_NAME    = STARLINK-36384
OBJECT_ID      = 2026-018J
CENTER_NAME    = EARTH
REF_FRAME      = TEME
TIME_SYSTEM    = UTC
MEAN_ELEMENT_THEORY = SGP/SGP4

EPOCH          = 2026-02-04T20:00:00.999360
MEAN_MOTION    = 15.99241028
ECCENTRICITY   = .0001394
INCLINATION    = 97.2790
RA_OF_ASC_NODE = 99.8455
ARG_OF_PERICENTER = 73.4303
MEAN_ANOMALY   = 302.8465

EPHEMERIS_TYPE = 0
CLASSIFICATION_TYPE = U
NORAD_CAT_ID   = 67597
ELEMENT_SET_NO = 999
REV_AT_EPOCH   = 212
BSTAR          = -.34054E-2
MEAN_MOTION_DOT = -.164001E-1
MEAN_MOTION_DDOT = .81275E-3

CCSDS_OMM_VERS = 2.0
CREATION_DATE  = 
ORIGINATOR     = 

OBJECT_NAME    = STARLINK-36358
OBJECT_ID      = 2026-018K
CENTER_NAME    = EARTH
REF_FRAME      = TEME
TIME_SYSTEM    = UTC
MEAN_ELEMENT_THEORY = SGP/SGP4

EPOCH          = 2026-02-04T20:00:00.999360
MEAN_MOTION    = 15.99362088
ECCENTRICITY   = .0001308
INCLINATION    = 97.2790
RA_OF_ASC_NODE = 99.8459
ARG_OF_PERICENTER = 71.4678
MEAN_ANOMALY   = 306.4648

EPHEMERIS_TYPE = 0
CLASSIFICATION_TYPE = U
NORAD_CAT_ID   = 67598
ELEMENT_SET_NO = 999
REV_AT_EPOCH   = 211
BSTAR          = -.33724E-2
MEAN_MOTION_DOT = -.1635166E-1
MEAN_MOTION_DDOT = .80938E-3

CCSDS_OMM_VERS = 2.0
CREATION_DATE  = 
ORIGINATOR     = 

OBJECT_NAME    = STARLINK-36582
OBJECT_ID      = 2026-018L
CENTER_NAME    = EARTH
REF_FRAME      = TEME
TIME_SYSTEM    = UTC
MEAN_ELEMENT_THEORY = SGP/SGP4

EPOCH          = 2026-02-04T20:00:00.999360
MEAN_MOTION    = 15.99553828
ECCENTRICITY   = .0001308
INCLINATION    = 97.2790
RA_OF_ASC_NODE = 99.8472
ARG_OF_PERICENTER = 70.8459
MEAN_ANOMALY   = 309.4900

EPHEMERIS_TYPE = 0
CLASSIFICATION_TYPE = U
NORAD_CAT_ID   = 67599
ELEMENT_SET_NO = 999
REV_AT_EPOCH   = 217
BSTAR          = -.3315E-2
MEAN_MOTION_DOT = -.1624843E-1
MEAN_MOTION_DDOT = .80161E-3

CCSDS_OMM_VERS = 2.0
CREATION_DATE  = 
ORIGINATOR     = 

OBJECT_NAME    = STARLINK-36640
OBJECT_ID      = 2026-018M
CENTER_NAME    = EARTH
REF_FRAME      = TEME
TIME_SYSTEM    = UTC
MEAN_ELEMENT_THEORY = SGP/SGP4

EPOCH          = 2026-02-04T20:00:00.999360
MEAN_MOTION    = 15.99880584
ECCENTRICITY   = .000137
INCLINATION    = 97.2788
RA_OF_ASC_NODE = 99.8490
ARG_OF_PERICENTER = 63.6497
MEAN_ANOMALY   = 320.8157

EPHEMERIS_TYPE = 0
CLASSIFICATION_TYPE = U
NORAD_CAT_ID   = 67600
ELEMENT_SET_NO = 999
REV_AT_EPOCH   = 207
BSTAR          = -.32477E-2
MEAN_MOTION_DOT = -.1621488E-1
MEAN_MOTION_DDOT = .80148E-3

CCSDS_OMM_VERS = 2.0
CREATION_DATE  = 
ORIGINATOR     = 

OBJECT_NAME    = STARLINK-36635
OBJECT_ID      = 2026-018N
CENTER_NAME    = EARTH
REF_FRAME      = TEME
TIME_SYSTEM    = UTC
MEAN_ELEMENT_THEORY = SGP/SGP4

EPOCH          = 2026-02-04T20:00:00.999360
MEAN_MOTION    = 15.99699233
ECCENTRICITY   = .0001387
INCLINATION    = 97.2787
RA_OF_ASC_NODE = 99.8478
ARG_OF_PERICENTER = 72.8685
MEAN_ANOMALY   = 309.3155

EPHEMERIS_TYPE = 0
CLASSIFICATION_TYPE = U
NORAD_CAT_ID   = 67601
ELEMENT_SET_NO = 999
REV_AT_EPOCH   = 207
BSTAR          = -.33011E-2
MEAN_MOTION_DOT = -.163124E-1
MEAN_MOTION_DDOT = .80883E-3

CCSDS_OMM_VERS = 2.0
CREATION_DATE  = 
ORIGINATOR     = 

OBJECT_NAME    = STARLINK-36631
OBJECT_ID      = 2026-018P
CENTER_NAME    = EARTH
REF_FRAME      = TEME
TIME_SYSTEM    = UTC
MEAN_ELEMENT_THEORY = SGP/SGP4

EPOCH          = 2026-02-04T20:00:00.999360
MEAN_MOTION    = 16.00076201
ECCENTRICITY   = .0001363
INCLINATION    = 97.2783
RA_OF_ASC_NODE = 99.8500
ARG_OF_PERICENTER = 76.3933
MEAN_ANOMALY   = 310.4905

EPHEMERIS_TYPE = 0
CLASSIFICATION_TYPE = U
NORAD_CAT_ID   = 67602
ELEMENT_SET_NO = 999
REV_AT_EPOCH   = 206
BSTAR          = -.31969E-2
MEAN_MOTION_DOT = -.1613903E-1
MEAN_MOTION_DDOT = .79627E-3

CCSDS_OMM_VERS = 2.0
CREATION_DATE  = 
ORIGINATOR     = 

OBJECT_NAME    = STARLINK-36626
OBJECT_ID      = 2026-018Q
CENTER_NAME    = EARTH
REF_FRAME      = TEME
TIME_SYSTEM    = UTC
MEAN_ELEMENT_THEORY = SGP/SGP4

EPOCH          = 2026-02-04T20:00:00.999360
MEAN_MOTION    = 16.00563612
ECCENTRICITY   = .0001429
INCLINATION    = 97.2782
RA_OF_ASC_NODE = 99.8525
ARG_OF_PERICENTER = 66.6984
MEAN_ANOMALY   = 326.4201

EPHEMERIS_TYPE = 0
CLASSIFICATION_TYPE = U
NORAD_CAT_ID   = 67603
ELEMENT_SET_NO = 999
REV_AT_EPOCH   = 206
BSTAR          = -.30675E-2
MEAN_MOTION_DOT = -.1592267E-1
MEAN_MOTION_DDOT = .78081E-3

CCSDS_OMM_VERS = 2.0
CREATION_DATE  = 
ORIGINATOR     = 

OBJECT_NAME    = STARLINK-36605
OBJECT_ID      = 2026-018R
CENTER_NAME    = EARTH
REF_FRAME      = TEME
TIME_SYSTEM    = UTC
MEAN_ELEMENT_THEORY = SGP/SGP4

EPOCH          = 2026-02-04T20:00:00.999360
MEAN_MOTION    = 16.00429429
ECCENTRICITY   = .0001411
INCLINATION    = 97.2779
RA_OF_ASC_NODE = 99.8516
ARG_OF_PERICENTER = 68.1547
MEAN_ANOMALY   = 323.2548

EPHEMERIS_TYPE = 0
CLASSIFICATION_TYPE = U
NORAD_CAT_ID   = 67604
ELEMENT_SET_NO = 999
REV_AT_EPOCH   = 206
BSTAR          = -.30695E-2
MEAN_MOTION_DOT = -.158134E-1
MEAN_MOTION_DDOT = .76968E-3

CCSDS_OMM_VERS = 2.0
CREATION_DATE  = 
ORIGINATOR     = 

OBJECT_NAME    = STARLINK-36281
OBJECT_ID      = 2026-018S
CENTER_NAME    = EARTH
REF_FRAME      = TEME
TIME_SYSTEM    = UTC
MEAN_ELEMENT_THEORY = SGP/SGP4

EPOCH          = 2026-02-04T20:00:00.999360
MEAN_MOTION    = 16.00267523
ECCENTRICITY   = .0001141
INCLINATION    = 97.2781
RA_OF_ASC_NODE = 99.8506
ARG_OF_PERICENTER = 72.9240
MEAN_ANOMALY   = 316.3798

EPHEMERIS_TYPE = 0
CLASSIFICATION_TYPE = U
NORAD_CAT_ID   = 67605
ELEMENT_SET_NO = 999
REV_AT_EPOCH   = 211
BSTAR          = -.31321E-2
MEAN_MOTION_DOT = -.1598568E-1
MEAN_MOTION_DDOT = .78393E-3

CCSDS_OMM_VERS = 2.0
CREATION_DATE  = 
ORIGINATOR     = 

OBJECT_NAME    = STARLINK-35843
OBJECT_ID      = 2026-018T
CENTER_NAME    = EARTH
REF_FRAME      = TEME
TIME_SYSTEM    = UTC
MEAN_ELEMENT_THEORY = SGP/SGP4

EPOCH          = 2026-02-04T20:00:00.999360
MEAN_MOTION    = 16.00709507
ECCENTRICITY   = .0001458
INCLINATION    = 97.2778
RA_OF_ASC_NODE = 99.8529
ARG_OF_PERICENTER = 65.1090
MEAN_ANOMALY   = 329.9639

EPHEMERIS_TYPE = 0
CLASSIFICATION_TYPE = U
NORAD_CAT_ID   = 67606
ELEMENT_SET_NO = 999
REV_AT_EPOCH   = 212
BSTAR          = -.30181E-2
MEAN_MOTION_DOT = -.1579853E-1
MEAN_MOTION_DDOT = .77079E-3

CCSDS_OMM_VERS = 2.0
CREATION_DATE  = 
ORIGINATOR     = 

OBJECT_NAME    = STARLINK-36351
OBJECT_ID      = 2026-018U
CENTER_NAME    = EARTH
REF_FRAME      = TEME
TIME_SYSTEM    = UTC
MEAN_ELEMENT_THEORY = SGP/SGP4

EPOCH          = 2026-02-04T20:00:00.999360
MEAN_MOTION    = 16.00839615
ECCENTRICITY   = .0001407
INCLINATION    = 97.2779
RA_OF_ASC_NODE = 99.8540
ARG_OF_PERICENTER = 62.9684
MEAN_ANOMALY   = 333.8422

EPHEMERIS_TYPE = 0
CLASSIFICATION_TYPE = U
NORAD_CAT_ID   = 67607
ELEMENT_SET_NO = 999
REV_AT_EPOCH   = 212
BSTAR          = -.29741E-2
MEAN_MOTION_DOT = -.1568521E-1
MEAN_MOTION_DDOT = .76167E-3

