STARLINK-36629          
1 67596U 26018H   26035.83334490 -.01638799  80998-3 -34379-2 0  9990
2 67596  97.2792  99.8445 0001324  68.4120 305.6000 15.99058334  2060
STARLINK-36384          
1 67597U 26018J   26035.83334490 -.01640010  81275-3 -34054-2 0  9999
2 67597  97.2790  99.8455 0001394  73.4303 302.8465 15.99241028  2121
STARLINK-36358          
1 67598U 26018K   26035.83334490 -.01635166  80938-3 -33724-2 0  9994
2 67598  97.2790  99.8459 0001308  71.4678 306.4648 15.99362088  2116
STARLINK-36582          
1 67599U 26018L   26035.83334490 -.01624843  80161-3 -33150-2 0  9996
2 67599  97.2790  99.8472 0001308  70.8459 309.4900 15.99553828  2176
STARLINK-36640          
1 67600U 26018M   26035.83334490 -.01621488  80148-3 -32477-2 0  9997
2 67600  97.2788  99.8490 0001370  63.6497 320.8157 15.99880584  2079
STARLINK-36635          
1 67601U 26018N   26035.83334490 -.01631240  80883-3 -33011-2 0  9996
2 67601  97.2787  99.8478 0001387  72.8685 309.3155 15.99699233  2073
STARLINK-36631          
1 67602U 26018P   26035.83334490 -.01613903  79627-3 -31969-2 0  9997
2 67602  97.2783  99.8500 0001363  76.3933 310.4905 16.00076201  2067
STARLINK-36626          
1 67603U 26018Q   26035.83334490 -.01592267  78081-3 -30675-2 0  9993
2 67603  97.2782  99.8525 0001429  66.6984 326.4201 16.00563612  2068
STARLINK-36605          
1 67604U 26018R   26035.83334490 -.01581340  76968-3 -30695-2 0  9998
2 67604  97.2779  99.8516 0001411  68.1547 323.2548 16.00429429  2064
STARLINK-36281          
1 67605U 26018S   26035.83334490 -.01598568  78393-3 -31321-2 0  9990
2 67605  97.2781  99.8506 0001141  72.9240 316.3798 16.00267523  2111
STARLINK-35843          
1 67606U 26018T   26035.83334490 -.01579853  77079-3 -30181-2 0  9990
2 67606  97.2778  99.8529 0001458  65.1090 329.9639 16.00709507  2129
STARLINK-36351          
1 67607U 26018U   26035.83334490 -.01568521  76167-3 -29741-2 0  9998
2 67607  97.2779  99.8540 0001407  62.9684 333.8422 16.00839615  2120
